[{"OBJECT_NAME":"HAWK-C","OBJECT_ID":"2018-099AT","EPOCH":"2026-03-09T16:08:34.251360","MEAN_MOTION":15.26407167,"ECCENTRICITY":0.00403625,"INCLINATION":97.4027,"RA_OF_ASC_NODE":122.6817,"ARG_OF_PERICENTER":277.4052,"MEAN_ANOMALY":82.2601,"EPHEMERIS_TYPE":0,"CLASSIFICATION_TYPE":"U","NORAD_CAT_ID":43799,"ELEMENT_SET_NO":999,"REV_AT_EPOCH":39872,"BSTAR":0.00035662773,"MEAN_MOTION_DOT":9.431e-5,"MEAN_MOTION_DDOT":0},{"OBJECT_NAME":"HAWK-6C","OBJECT_ID":"2023-011C","EPOCH":"2026-03-09T16:08:26.380320","MEAN_MOTION":15.2190256,"ECCENTRICITY":0.00024272,"INCLINATION":40.4846,"RA_OF_ASC_NODE":208.9466,"ARG_OF_PERICENTER":10.2947,"MEAN_ANOMALY":349.7911,"EPHEMERIS_TYPE":0,"CLASSIFICATION_TYPE":"U","NORAD_CAT_ID":55326,"ELEMENT_SET_NO":999,"REV_AT_EPOCH":17268,"BSTAR":0.00033931673,"MEAN_MOTION_DOT":7.702e-5,"MEAN_MOTION_DDOT":0}]
