HAWK-C                  
1 43799U 18099AT  26068.67261865  .00009431  00000+0  35663-3 0  9994
2 43799  97.4027 122.6817 0040363 277.4052  82.2601 15.26407167398720
HAWK-6C                 
1 55326U 23011C   26068.67252755  .00007702  00000+0  33932-3 0  9997
2 55326  40.4846 208.9466 0002427  10.2947 349.7911 15.21902560172681
